{"type": "FeatureCollection", "features": [{"type": "Feature", "properties": {"norad_id": 28054, "name": "DMSP 5D-3 F16 (USA 172)", "group": "weather", "lat": 59.04536950370536, "lon": -2.402512414205745, "alt_km": 841.2318834389744, "timestamp": "2025-12-21T09:37:22.290917+00:00", "meta": {"OBJECT_NAME": "DMSP 5D-3 F16 (USA 172)", "OBJECT_ID": "2003-048A", "EPOCH": "2025-12-21T02:57:38.746368", "MEAN_MOTION": 14.14426948, "ECCENTRICITY": 0.0006284, "INCLINATION": 99.0038, "RA_OF_ASC_NODE": 12.6461, "ARG_OF_PERICENTER": 294.1485, "MEAN_ANOMALY": 153.4353, "EPHEMERIS_TYPE": 0, "CLASSIFICATION_TYPE": "U", "NORAD_CAT_ID": 28054, "ELEMENT_SET_NO": 999, "REV_AT_EPOCH": 14431, "BSTAR": 6.4598e-05, "MEAN_MOTION_DOT": 7.8e-07, "MEAN_MOTION_DDOT": 0}, "tle": {"line1": "1 28054U 03048A   25355.12336512  .00000078  00000+0  64598-4 0  9997", "line2": "2 28054  99.0038  12.6461 0006284 294.1485 153.4353 14.14426948144313"}}, "geometry": {"type": "Point", "coordinates": [-2.402512414205745, 59.04536950370536]}}, {"type": "Feature", "properties": {"norad_id": 28912, "name": "METEOSAT-9 (MSG-2)", "group": "weather", "lat": -6.011810611069043, "lon": -82.31782315800854, "alt_km": 35569.52194034508, "timestamp": "2025-12-21T09:37:22.290968+00:00", "meta": {"OBJECT_NAME": "METEOSAT-9 (MSG-2)", "OBJECT_ID": "2005-049B", "EPOCH": "2025-12-20T18:34:58.766592", "MEAN_MOTION": 1.00265537, "ECCENTRICITY": 0.01042854, "INCLINATION": 8.9429, "RA_OF_ASC_NODE": 55.8777, "ARG_OF_PERICENTER": 282.8799, "MEAN_ANOMALY": 74.1046, "EPHEMERIS_TYPE": 0, "CLASSIFICATION_TYPE": "U", "NORAD_CAT_ID": 28912, "ELEMENT_SET_NO": 999, "REV_AT_EPOCH": 520, "BSTAR": 0, "MEAN_MOTION_DOT": 1.08e-06, "MEAN_MOTION_DDOT": 0}, "tle": {"line1": "1 28912U 05049B   25354.77429128  .00000108  00000+0  00000+0 0  9996", "line2": "2 28912   8.9429  55.8777 0104285 282.8799  74.1046  1.00265537  5208"}}, "geometry": {"type": "Point", "coordinates": [-82.31782315800854, -6.011810611069043]}}, {"type": "Feature", "properties": {"norad_id": 29522, "name": "DMSP 5D-3 F17 (USA 191)", "group": "weather", "lat": 15.582747297730046, "lon": -1.8488355856768999, "alt_km": 850.2873655638023, "timestamp": "2025-12-21T09:37:22.290987+00:00", "meta": {"OBJECT_NAME": "DMSP 5D-3 F17 (USA 191)", "OBJECT_ID": "2006-050A", "EPOCH": "2025-12-21T02:45:35.179200", "MEAN_MOTION": 14.14923058, "ECCENTRICITY": 0.0009756, "INCLINATION": 98.739, "RA_OF_ASC_NODE": 0.3297, "ARG_OF_PERICENTER": 199.6544, "MEAN_ANOMALY": 160.4255, "EPHEMERIS_TYPE": 0, "CLASSIFICATION_TYPE": "U", "NORAD_CAT_ID": 29522, "ELEMENT_SET_NO": 999, "REV_AT_EPOCH": 98723, "BSTAR": 8.2829e-05, "MEAN_MOTION_DOT": 1.17e-06, "MEAN_MOTION_DDOT": 0}, "tle": {"line1": "1 29522U 06050A   25355.11499050  .00000117  00000+0  82829-4 0  9991", "line2": "2 29522  98.7390   0.3297 0009756 199.6544 160.4255 14.14923058987233"}}, "geometry": {"type": "Point", "coordinates": [-1.8488355856768999, 15.582747297730046]}}, {"type": "Feature", "properties": {"norad_id": 32958, "name": "FENGYUN 3A", "group": "weather", "lat": -52.060426469898545, "lon": 103.45763944914628, "alt_km": 830.3478903659225, "timestamp": "2025-12-21T09:37:22.291002+00:00", "meta": {"OBJECT_NAME": "FENGYUN 3A", "OBJECT_ID": "2008-026A", "EPOCH": "2025-12-20T20:41:12.694272", "MEAN_MOTION": 14.195169, "ECCENTRICITY": 0.0007661, "INCLINATION": 98.6708, "RA_OF_ASC_NODE": 294.218, "ARG_OF_PERICENTER": 284.299, "MEAN_ANOMALY": 75.7335, "EPHEMERIS_TYPE": 0, "CLASSIFICATION_TYPE": "U", "NORAD_CAT_ID": 32958, "ELEMENT_SET_NO": 999, "REV_AT_EPOCH": 91010, "BSTAR": 5.2159e-05, "MEAN_MOTION_DOT": 6.7e-07, "MEAN_MOTION_DDOT": 0}, "tle": {"line1": "1 32958U 08026A   25354.86195248  .00000067  00000+0  52159-4 0  9993", "line2": "2 32958  98.6708 294.2180 0007661 284.2990  75.7335 14.19516900910104"}}, "geometry": {"type": "Point", "coordinates": [103.45763944914628, -52.060426469898545]}}, {"type": "Feature", "properties": {"norad_id": 35491, "name": "GOES 14", "group": "weather", "lat": 0.7093052769686988, "lon": 119.3292368007264, "alt_km": 35837.0024816485, "timestamp": "2025-12-21T09:37:22.291017+00:00", "meta": {"OBJECT_NAME": "GOES 14", "OBJECT_ID": "2009-033A", "EPOCH": "2025-12-21T04:48:07.325856", "MEAN_MOTION": 1.0009693, "ECCENTRICITY": 5.21e-05, "INCLINATION": 1.2244, "RA_OF_ASC_NODE": 85.32, "ARG_OF_PERICENTER": 184.6247, "MEAN_ANOMALY": 137.0168, "EPHEMERIS_TYPE": 0, "CLASSIFICATION_TYPE": "U", "NORAD_CAT_ID": 35491, "ELEMENT_SET_NO": 999, "REV_AT_EPOCH": 480, "BSTAR": 0, "MEAN_MOTION_DOT": 2.3e-07, "MEAN_MOTION_DDOT": 0}, "tle": {"line1": "1 35491U 09033A   25355.20008479  .00000023  00000+0  00000+0 0  9990", "line2": "2 35491   1.2244  85.3200 0000521 184.6247 137.0168  1.00096930  4801"}}, "geometry": {"type": "Point", "coordinates": [119.3292368007264, 0.7093052769686988]}}, {"type": "Feature", "properties": {"norad_id": 35951, "name": "DMSP 5D-3 F18 (USA 210)", "group": "weather", "lat": -57.6323831907957, "lon": 137.47186154445373, "alt_km": 858.22930017218, "timestamp": "2025-12-21T09:37:22.291029+00:00", "meta": {"OBJECT_NAME": "DMSP 5D-3 F18 (USA 210)", "OBJECT_ID": "2009-057A", "EPOCH": "2025-12-21T05:06:13.019616", "MEAN_MOTION": 14.14774383, "ECCENTRICITY": 0.0011845, "INCLINATION": 98.8843, "RA_OF_ASC_NODE": 331.5714, "ARG_OF_PERICENTER": 40.4374, "MEAN_ANOMALY": 319.7677, "EPHEMERIS_TYPE": 0, "CLASSIFICATION_TYPE": "U", "NORAD_CAT_ID": 35951, "ELEMENT_SET_NO": 999, "REV_AT_EPOCH": 83442, "BSTAR": 0.00013302, "MEAN_MOTION_DOT": 2.12e-06, "MEAN_MOTION_DDOT": 0}, "tle": {"line1": "1 35951U 09057A   25355.21265069  .00000212  00000+0  13302-3 0  9991", "line2": "2 35951  98.8843 331.5714 0011845  40.4374 319.7677 14.14774383834423"}}, "geometry": {"type": "Point", "coordinates": [137.47186154445373, -57.6323831907957]}}, {"type": "Feature", "properties": {"norad_id": 36411, "name": "EWS-G2 (GOES 15)", "group": "weather", "lat": -0.43975624516248296, "lon": -64.05045403254366, "alt_km": 35766.77823876567, "timestamp": "2025-12-21T09:37:22.291043+00:00", "meta": {"OBJECT_NAME": "EWS-G2 (GOES 15)", "OBJECT_ID": "2010-008A", "EPOCH": "2025-12-20T23:47:36.324960", "MEAN_MOTION": 1.00270878, "ECCENTRICITY": 0.0005462, "INCLINATION": 0.8328, "RA_OF_ASC_NODE": 86.0873, "ARG_OF_PERICENTER": 177.5717, "MEAN_ANOMALY": 244.4227, "EPHEMERIS_TYPE": 0, "CLASSIFICATION_TYPE": "U", "NORAD_CAT_ID": 36411, "ELEMENT_SET_NO": 999, "REV_AT_EPOCH": 5785, "BSTAR": 0, "MEAN_MOTION_DOT": 6.1e-07, "MEAN_MOTION_DDOT": 0}, "tle": {"line1": "1 36411U 10008A   25354.99139265  .00000061  00000+0  00000+0 0  9992", "line2": "2 36411   0.8328  86.0873 0005462 177.5717 244.4227  1.00270878 57855"}}, "geometry": {"type": "Point", "coordinates": [-64.05045403254366, -0.43975624516248296]}}, {"type": "Feature", "properties": {"norad_id": 36744, "name": "COMS 1", "group": "weather", "lat": -4.217665987042563, "lon": 2.7886793186522665, "alt_km": 35786.213233561226, "timestamp": "2025-12-21T09:37:22.291058+00:00", "meta": {"OBJECT_NAME": "COMS 1", "OBJECT_ID": "2010-032A", "EPOCH": "2025-12-20T17:15:48.580128", "MEAN_MOTION": 1.00272163, "ECCENTRICITY": 6.966e-05, "INCLINATION": 4.3584, "RA_OF_ASC_NODE": 77.9096, "ARG_OF_PERICENTER": 203.045, "MEAN_ANOMALY": 195.7243, "EPHEMERIS_TYPE": 0, "CLASSIFICATION_TYPE": "U", "NORAD_CAT_ID": 36744, "ELEMENT_SET_NO": 999, "REV_AT_EPOCH": 4930, "BSTAR": 0, "MEAN_MOTION_DOT": -3.24e-06, "MEAN_MOTION_DDOT": 0}, "tle": {"line1": "1 36744U 10032A   25354.71931227 -.00000324  00000+0  00000+0 0  9999", "line2": "2 36744   4.3584  77.9096 0000696 203.0450 195.7243  1.00272163 49302"}}, "geometry": {"type": "Point", "coordinates": [2.7886793186522665, -4.217665987042563]}}, {"type": "Feature", "properties": {"norad_id": 37214, "name": "FENGYUN 3B", "group": "weather", "lat": -23.559616173803814, "lon": -148.519426707993, "alt_km": 858.3269618964896, "timestamp": "2025-12-21T09:37:22.291071+00:00", "meta": {"OBJECT_NAME": "FENGYUN 3B", "OBJECT_ID": "2010-059A", "EPOCH": "2025-12-21T05:37:46.258752", "MEAN_MOTION": 14.14791746, "ECCENTRICITY": 0.0021655, "INCLINATION": 98.9898, "RA_OF_ASC_NODE": 35.2712, "ARG_OF_PERICENTER": 333.6126, "MEAN_ANOMALY": 103.348, "EPHEMERIS_TYPE": 0, "CLASSIFICATION_TYPE": "U", "NORAD_CAT_ID": 37214, "ELEMENT_SET_NO": 999, "REV_AT_EPOCH": 78226, "BSTAR": -2.6066e-05, "MEAN_MOTION_DOT": -9.6e-07, "MEAN_MOTION_DDOT": 0}, "tle": {"line1": "1 37214U 10059A   25355.23456318 -.00000096  00000+0 -26066-4 0  9994", "line2": "2 37214  98.9898  35.2712 0021655 333.6126 103.3480 14.14791746782261"}}, "geometry": {"type": "Point", "coordinates": [-148.519426707993, -23.559616173803814]}}, {"type": "Feature", "properties": {"norad_id": 37849, "name": "SUOMI NPP", "group": "weather", "lat": -11.70950722934999, "lon": 110.82910141846037, "alt_km": 831.3057111215503, "timestamp": "2025-12-21T09:37:22.291083+00:00", "meta": {"OBJECT_NAME": "SUOMI NPP", "OBJECT_ID": "2011-061A", "EPOCH": "2025-12-17T23:31:21.474624", "MEAN_MOTION": 14.19515682, "ECCENTRICITY": 0.00023932, "INCLINATION": 98.7779, "RA_OF_ASC_NODE": 289.2746, "ARG_OF_PERICENTER": 111.1248, "MEAN_ANOMALY": 249.0184, "EPHEMERIS_TYPE": 0, "CLASSIFICATION_TYPE": "U", "NORAD_CAT_ID": 37849, "ELEMENT_SET_NO": 999, "REV_AT_EPOCH": 73273, "BSTAR": 4.8615036e-05, "MEAN_MOTION_DOT": 5.8e-07, "MEAN_MOTION_DDOT": 0}, "tle": {"line1": "1 37849U 11061A   25351.98010966  .00000058  00000+0  48615-4 0  9995", "line2": "2 37849  98.7779 289.2746 0002393 111.1248 249.0184 14.19515682732735"}}, "geometry": {"type": "Point", "coordinates": [110.82910141846037, -11.70950722934999]}}]}